[{"OBJECT_NAME":"STARLINK-30383","OBJECT_ID":"2023-134C","EPOCH":"2026-03-09T22:00:01.999584","MEAN_MOTION":15.17137173,"ECCENTRICITY":0.00015199,"INCLINATION":42.9997,"RA_OF_ASC_NODE":195.8091,"ARG_OF_PERICENTER":263.9517,"MEAN_ANOMALY":359.4229,"EPHEMERIS_TYPE":0,"CLASSIFICATION_TYPE":"U","NORAD_CAT_ID":57773,"ELEMENT_SET_NO":999,"REV_AT_EPOCH":572,"BSTAR":0.0041556855,"MEAN_MOTION_DOT":0.00084725,"MEAN_MOTION_DDOT":0},{"OBJECT_NAME":"6GSTARLAB","OBJECT_ID":"2025-276T","EPOCH":"2026-03-09T17:24:27.161568","MEAN_MOTION":15.17770534,"ECCENTRICITY":0.00054902,"INCLINATION":97.4314,"RA_OF_ASC_NODE":143.9369,"ARG_OF_PERICENTER":357.076,"MEAN_ANOMALY":3.044,"EPHEMERIS_TYPE":0,"CLASSIFICATION_TYPE":"U","NORAD_CAT_ID":66683,"ELEMENT_SET_NO":999,"REV_AT_EPOCH":1531,"BSTAR":0.00019396576,"MEAN_MOTION_DOT":3.852e-5,"MEAN_MOTION_DDOT":0}]
